SL-8 R/B                
1 15483U 85006B   26170.11133986  .00000155  00000+0  60120-4 0  9991
2 15483  74.0460  74.5235 0018908 321.3490 143.3002 14.37835703168603
SL-12 R/B(2)            
1 15772U 85042D   26170.27318720  .00000009  00000+0  25396-4 0  9994
2 15772  71.1075 233.1093 0036425 324.5913 100.0333 14.22006344128831
SL-14 R/B               
1 15945U 85069B   26170.25590458  .00000361  00000+0  37993-4 0  9990
2 15945  82.5272 289.4202 0017937 211.9216 148.0916 14.86516891187923
SL-16 R/B               
1 16182U 85097B   26170.30939273  .00000028  00000+0  38223-4 0  9990
2 16182  71.0033 286.6098 0005390 106.8015 283.9745 14.16610142101625
SL-14 R/B               
1 16496U 86006B   26170.27222495  .00000435  00000+0  43510-4 0  9993
2 16496  82.5262 164.1511 0074859 296.4367  62.9182 14.86947360164302
COSMOS 1743             
1 16719U 86034A   26169.42393656  .00037795  00000+0  35406-3 0  9998
2 16719  82.5283 327.4165 0003996 265.3192  94.7612 15.67035980195982
SL-14 R/B               
1 16792U 86046B   26170.24077677  .00000318  00000+0  33796-4 0  9998
2 16792  82.4818 344.2346 0021639 251.1649 108.7220 14.85672222141480
SL-14 R/B               
1 16882U 86055B   26170.10843456  .00000301  00000+0  31802-4 0  9997
2 16882  82.5203  31.3266 0018878   1.3953 114.0498 14.85724222134429
AJISAI (EGS)            
1 16908U 86061A   26170.32221814 -.00000107  00000+0 -65063-4 0  9997
2 16908  50.0068 140.8294 0011205 186.0120 326.1979 12.44516779480656
SL-14 R/B               
1 17567U 87024B   26170.23729129  .00000282  00000+0  29334-4 0  9994
2 17567  82.5279 357.3234 0016739 285.8480  74.0891 14.86214234103210
COSMOS 1833             
1 17589U 87027A   26170.23198793  .00000335  00000+0  20470-3 0  9998
2 17589  70.9184 112.5699 0022857  51.7221 308.5951 14.13051605 24661
SL-16 R/B               
1 17590U 87027B   26170.12189273 -.00000159  00000+0 -55121-4 0  9999
2 17590  71.0033  62.7520 0006588 310.0999  49.9547 14.17171330 29713
SL-14 R/B               
1 17912U 87038B   26170.08239824  .00000259  00000+0  27123-4 0  9992
2 17912  82.5007 201.2871 0019072 184.8649 175.2385 14.85446102 94283
COSMOS 1844             
1 17973U 87041A   26170.29925056 -.00000126  00000+0 -39849-4 0  9998
2 17973  70.8965 179.8520 0032787 232.4793 127.3348 14.14567443 17952
SL-14 R/B               
1 18153U 87055B   26170.24358888  .00000312  00000+0  33049-4 0  9993
2 18153  82.4995 253.2907 0021564  41.2073 319.0766 14.85712312 85010
COSMOS 1867             
1 18187U 87060A   26170.01947181 -.00000050  00000+0  18824-4 0  9995
2 18187  65.0115  22.9272 0016564 282.1592  77.7636 14.31515893 34441
SL-14 R/B               
1 18749U 88001B   26170.24573818  .00000315  00000+0  33554-4 0  9992
2 18749  82.5133  99.8371 0016439 262.0622  97.8729 14.85610824 57107
COSMOS 1933             
1 18958U 88020A   26170.08001738  .00003153  00000+0  15044-3 0  9990
2 18958  82.5124 150.5607 0003783 178.9547 181.1696 15.18723991 65617
SL-3 R/B                
1 19046U 88032B   26170.21696922  .00003177  00000+0  14609-3 0  9994
2 19046  97.5258 153.2556 0023954 237.4282 122.4640 15.20852526 67532
SL-16 R/B               
1 19120U 88039B   26170.23472368  .00000102  00000+0  70706-4 0  9998
2 19120  71.0134 213.8287 0022133 190.1056 169.9627 14.19629910972791
COSMOS 1953             
1 19210U 88050A   26170.17701288  .00006175  00000+0  21109-3 0  9998
2 19210  82.5073  56.0279 0012252 120.2399 240.0056 15.30001706 53296
SL-8 R/B                
1 19257U 88053B   26169.76038289  .00000143  00000+0  54763-4 0  9991
2 19257  74.0482 286.1573 0019166  80.9098  66.9107 14.38967939991131
COSMOS 1975             
1 19573U 88093A   26170.05181035  .00005963  00000+0  20801-3 0  9998
2 19573  82.5188  15.8258 0011511 165.2118 194.9461 15.29345171 34897
SL-14 R/B               
1 19574U 88093B   26170.11207458  .00000342  00000+0  36413-4 0  9997
2 19574  82.5313 306.8374 0022022  64.5056 108.7403 14.85743089 16071
SL-16 R/B               
1 19650U 88102B   26169.77111082 -.00000075  00000+0 -13465-4 0  9997
2 19650  71.0000 298.8059 0015693 223.1389 136.8506 14.16164018941201
INTERCOSMOS 24          
1 20261U 89080A   26170.08148534  .00000691  00000+0  19483-3 0  9998
2 20261  82.6064  38.4126 1188349  57.5144 313.5259 12.59664631679567
SL-14 R/B               
1 20262U 89080C   26170.08223563  .00000216  00000+0  64712-4 0  9994
2 20262  82.5935 108.0903 1228668 313.0646  37.3710 12.50571588672821
DELTA 1 R/B             
1 20323U 89089B   26170.28847397  .00000217  00000+0  62215-4 0  9997
2 20323  97.0636   1.5105 0069432 160.3785 200.0110 14.50732406910465
ARIANE 40 R/B           
1 20443U 90005H   26170.12934184  .00000178  00000+0  69978-4 0  9993
2 20443  98.2958 227.6851 0008857 257.6851 102.3346 14.39928287907401
DELTA 2 R/B(1)          
1 20453U 90008B   26169.84486419  .00063437  00000+0  46569-3 0  9994
2 20453  35.5985 224.5676 0064889 130.2886 230.3549 15.69043930941961
