OBJECT_NAME,OBJECT_ID,EPOCH,MEAN_MOTION,ECCENTRICITY,INCLINATION,RA_OF_ASC_NODE,ARG_OF_PERICENTER,MEAN_ANOMALY,EPHEMERIS_TYPE,CLASSIFICATION_TYPE,NORAD_CAT_ID,ELEMENT_SET_NO,REV_AT_EPOCH,BSTAR,MEAN_MOTION_DOT,MEAN_MOTION_DDOT
SL-8 R/B,1985-006B,2026-06-19T02:40:19.763904,14.37835703,.00189089,74.0460,74.5235,321.3490,143.3002,0,U,15483,999,16860,.60119891E-4,.155E-5,0
SL-12 R/B(2),1985-042D,2026-06-19T06:33:23.374080,14.22006344,.00364257,71.1075,233.1093,324.5913,100.0333,0,U,15772,999,12883,.25395536E-4,.9E-7,0
SL-14 R/B,1985-069B,2026-06-19T06:08:30.155712,14.86516891,.00179378,82.5272,289.4202,211.9216,148.0916,0,U,15945,999,18792,.37993104E-4,.361E-5,0
SL-16 R/B,1985-097B,2026-06-19T07:25:31.531872,14.16610142,.00053908,71.0033,286.6098,106.8015,283.9745,0,U,16182,999,10162,.3822347E-4,.28E-6,0
SL-14 R/B,1986-006B,2026-06-19T06:32:00.235680,14.86947360,.00748599,82.5262,164.1511,296.4367,62.9182,0,U,16496,999,16430,.43510331E-4,.435E-5,0
COSMOS 1743,1986-034A,2026-06-18T10:10:28.118784,15.67035980,.0003996,82.5283,327.4165,265.3192,94.7612,0,U,16719,999,19598,.35406E-3,.37795E-3,0
SL-14 R/B,1986-046B,2026-06-19T05:46:43.112928,14.85672222,.0021639,82.4818,344.2346,251.1649,108.7220,0,U,16792,999,14148,.33796101E-4,.318E-5,0
SL-14 R/B,1986-055B,2026-06-19T02:36:08.745984,14.85724222,.00188783,82.5203,31.3266,1.3953,114.0498,0,U,16882,999,13442,.31801916E-4,.301E-5,0
AJISAI (EGS),1986-061A,2026-06-19T07:43:59.647296,12.44516779,.00112052,50.0068,140.8294,186.0120,326.1979,0,U,16908,999,48065,-.65062506E-4,-.107E-5,0
SL-14 R/B,1987-024B,2026-06-19T05:41:41.967456,14.86214234,.00167399,82.5279,357.3234,285.8480,74.0891,0,U,17567,999,10321,.29333525E-4,.282E-5,0
COSMOS 1833,1987-027A,2026-06-19T05:34:03.757152,14.13051605,.00228577,70.9184,112.5699,51.7221,308.5951,0,U,17589,999,2466,.20469648E-3,.335E-5,0
SL-16 R/B,1987-027B,2026-06-19T02:55:31.531872,14.17171330,.00065886,71.0033,62.7520,310.0999,49.9547,0,U,17590,999,2971,-.55121345E-4,-.159E-5,0
SL-14 R/B,1987-038B,2026-06-19T01:58:39.207936,14.85446102,.00190723,82.5007,201.2871,184.8649,175.2385,0,U,17912,999,9428,.27123446E-4,.259E-5,0
COSMOS 1844,1987-041A,2026-06-19T07:10:55.248384,14.14567443,.00327874,70.8965,179.8520,232.4793,127.3348,0,U,17973,999,1795,-.39848503E-4,-.126E-5,0
SL-14 R/B,1987-055B,2026-06-19T05:50:46.079232,14.85712312,.00215644,82.4995,253.2907,41.2073,319.0766,0,U,18153,999,8501,.33049215E-4,.312E-5,0
COSMOS 1867,1987-060A,2026-06-19T00:28:02.364384,14.31515893,.00165641,65.0115,22.9272,282.1592,77.7636,0,U,18187,999,3444,.18824143E-4,-.5E-6,0
SL-14 R/B,1988-001B,2026-06-19T05:53:51.778752,14.85610824,.00164393,82.5133,99.8371,262.0622,97.8729,0,U,18749,999,5710,.33554259E-4,.315E-5,0
COSMOS 1933,1988-020A,2026-06-19T01:55:13.501632,15.18723991,.00037834,82.5124,150.5607,178.9547,181.1696,0,U,18958,999,6561,.1504403E-3,.3153E-4,0
SL-3 R/B,1988-032B,2026-06-19T05:12:26.140608,15.20852526,.00239544,97.5258,153.2556,237.4282,122.4640,0,U,19046,999,6753,.14609221E-3,.3177E-4,0
SL-16 R/B,1988-039B,2026-06-19T05:38:00.125952,14.19629910,.00221338,71.0134,213.8287,190.1056,169.9627,0,U,19120,999,97279,.70706438E-4,.102E-5,0
COSMOS 1953,1988-050A,2026-06-19T04:14:53.912832,15.30001706,.00122521,82.5073,56.0279,120.2399,240.0056,0,U,19210,999,5329,.21109208E-3,.6175E-4,0
SL-8 R/B,1988-053B,2026-06-18T18:14:57.081696,14.38967939,.00191667,74.0482,286.1573,80.9098,66.9107,0,U,19257,999,99113,.54763332E-4,.143E-5,0
COSMOS 1975,1988-093A,2026-06-19T01:14:36.414240,15.29345171,.00115117,82.5188,15.8258,165.2118,194.9461,0,U,19573,999,3489,.20800962E-3,.5963E-4,0
SL-14 R/B,1988-093B,2026-06-19T02:41:23.243712,14.85743089,.00220224,82.5313,306.8374,64.5056,108.7403,0,U,19574,999,1607,.36412515E-4,.342E-5,0
SL-16 R/B,1988-102B,2026-06-18T18:30:23.974848,14.16164018,.00156935,71.0000,298.8059,223.1389,136.8506,0,U,19650,999,94120,-.13465427E-4,-.75E-6,0
INTERCOSMOS 24,1989-080A,2026-06-19T01:57:20.333376,12.59664631,.11883497,82.6064,38.4126,57.5144,313.5259,0,U,20261,999,67956,.19482829E-3,.691E-5,0
SL-14 R/B,1989-080C,2026-06-19T01:58:25.158432,12.50571588,.12286686,82.5935,108.0903,313.0646,37.3710,0,U,20262,999,67282,.64712446E-4,.216E-5,0
DELTA 1 R/B,1989-089B,2026-06-19T06:55:24.151008,14.50732406,.00694324,97.0636,1.5105,160.3785,200.0110,0,U,20323,999,91046,.62215184E-4,.217E-5,0
ARIANE 40 R/B,1990-005H,2026-06-19T03:06:15.134976,14.39928287,.00088574,98.2958,227.6851,257.6851,102.3346,0,U,20443,999,90740,.69977951E-4,.178E-5,0
DELTA 2 R/B(1),1990-008B,2026-06-18T20:16:36.266016,15.69043930,.00648898,35.5985,224.5676,130.2886,230.3549,0,U,20453,999,94196,.46569204E-3,.63437E-3,0
